{"type": "FeatureCollection", "features": [ {"type": "Feature", "properties": {"norad_id": 44622, "name": "GAOFEN-10R", "group": "resource", "lat": -68.45322541086873, "lon": 94.35340320741734, "alt_km": 632.4727074414404, "timestamp": "2025-12-13T18:50:04.086176+00:00", "meta": {"OBJECT_NAME": "GAOFEN-10R", "OBJECT_ID": "2019-066A", "EPOCH": "2025-12-13T07:59:36.871296", "MEAN_MOTION": 14.82796879, "ECCENTRICITY": 0.00078455, "INCLINATION": 98.0276, "RA_OF_ASC_NODE": 294.8416, "ARG_OF_PERICENTER": 40.3597, "MEAN_ANOMALY": 319.8197, "EPHEMERIS_TYPE": 0, "CLASSIFICATION_TYPE": "U", "NORAD_CAT_ID": 44622, "ELEMENT_SET_NO": 999, "REV_AT_EPOCH": 33483, "BSTAR": 0.0003623882, "MEAN_MOTION_DOT": 2.878e-05, "MEAN_MOTION_DDOT": 0}, "tle": {"line1": "1 44622U 19066A   25347.33306564  .00002878  00000+0  36239-3 0  9991", "line2": "2 44622  98.0276 294.8416 0007845  40.3597 319.8197 14.82796879334838"}}, "geometry": {"type": "Point", "coordinates": [94.35340320741734, -68.45322541086873]}}, {"type": "Feature", "properties": {"norad_id": 44804, "name": "CARTOSAT-3", "group": "resource", "lat": -10.05601755853292, "lon": -133.97646343248155, "alt_km": 516.0215390969952, "timestamp": "2025-12-13T18:50:04.086187+00:00", "meta": {"OBJECT_NAME": "CARTOSAT-3", "OBJECT_ID": "2019-081A", "EPOCH": "2025-12-13T06:56:10.337856", "MEAN_MOTION": 15.19160323, "ECCENTRICITY": 0.00141652, "INCLINATION": 97.4584, "RA_OF_ASC_NODE": 46.8653, "ARG_OF_PERICENTER": 81.473, "MEAN_ANOMALY": 278.8109, "EPHEMERIS_TYPE": 0, "CLASSIFICATION_TYPE": "U", "NORAD_CAT_ID": 44804, "ELEMENT_SET_NO": 999, "REV_AT_EPOCH": 33524, "BSTAR": 0.00033339041, "MEAN_MOTION_DOT": 6.959e-05, "MEAN_MOTION_DDOT": 0}, "tle": {"line1": "1 44804U 19081A   25347.28900854  .00006959  00000+0  33339-3 0  9998", "line2": "2 44804  97.4584  46.8653 0014165  81.4730 278.8109 15.19160323335244"}}, "geometry": {"type": "Point", "coordinates": [-133.97646343248155, -10.05601755853292]}}, {"type": "Feature", "properties": {"norad_id": 44819, "name": "GAOFEN-12 01", "group": "resource", "lat": 30.681491871153053, "lon": 178.71099219381117, "alt_km": 625.4611112427228, "timestamp": "2025-12-13T18:50:04.086198+00:00", "meta": {"OBJECT_NAME": "GAOFEN-12 01", "OBJECT_ID": "2019-082A", "EPOCH": "2025-12-13T06:48:38.958336", "MEAN_MOTION": 14.80658221, "ECCENTRICITY": 0.00013533, "INCLINATION": 97.8126, "RA_OF_ASC_NODE": 353.5505, "ARG_OF_PERICENTER": 229.9568, "MEAN_ANOMALY": 130.1526, "EPHEMERIS_TYPE": 0, "CLASSIFICATION_TYPE": "U", "NORAD_CAT_ID": 44819, "ELEMENT_SET_NO": 999, "REV_AT_EPOCH": 32658, "BSTAR": 0.00010999339, "MEAN_MOTION_DOT": 7.94e-06, "MEAN_MOTION_DDOT": 0}, "tle": {"line1": "1 44819U 19082A   25347.28378424  .00000794  00000+0  10999-3 0  9995", "line2": "2 44819  97.8126 353.5505 0001353 229.9568 130.1526 14.80658221326589"}}, "geometry": {"type": "Point", "coordinates": [178.71099219381117, 30.681491871153053]}}, {"type": "Feature", "properties": {"norad_id": 44873, "name": "CSG-1", "group": "resource", "lat": -80.94528350306315, "lon": -71.27131366809135, "alt_km": 630.8564811960396, "timestamp": "2025-12-13T18:50:04.086208+00:00", "meta": {"OBJECT_NAME": "CSG-1", "OBJECT_ID": "2019-092A", "EPOCH": "2025-12-13T06:17:54.087648", "MEAN_MOTION": 14.82165932, "ECCENTRICITY": 0.00014444, "INCLINATION": 97.881, "RA_OF_ASC_NODE": 168.5788, "ARG_OF_PERICENTER": 85.0626, "MEAN_ANOMALY": 275.0752, "EPHEMERIS_TYPE": 0, "CLASSIFICATION_TYPE": "U", "NORAD_CAT_ID": 44873, "ELEMENT_SET_NO": 999, "REV_AT_EPOCH": 32393, "BSTAR": 0.00013688189, "MEAN_MOTION_DOT": 1.038e-05, "MEAN_MOTION_DDOT": 0}, "tle": {"line1": "1 44873U 19092A   25347.26243157  .00001038  00000+0  13688-3 0  9998", "line2": "2 44873  97.8810 168.5788 0001444  85.0626 275.0752 14.82165932323933"}}, "geometry": {"type": "Point", "coordinates": [-71.27131366809135, -80.94528350306315]}}, {"type": "Feature", "properties": {"norad_id": 46277, "name": "NEMO-HD", "group": "resource", "lat": -75.39315538493716, "lon": 75.98385410190556, "alt_km": 453.22557459834115, "timestamp": "2025-12-13T18:50:04.086219+00:00", "meta": {"OBJECT_NAME": "NEMO-HD", "OBJECT_ID": "2020-061F", "EPOCH": "2025-12-13T08:15:20.975328", "MEAN_MOTION": 15.40347042, "ECCENTRICITY": 0.00018415, "INCLINATION": 97.2215, "RA_OF_ASC_NODE": 46.4341, "ARG_OF_PERICENTER": 56.0215, "MEAN_ANOMALY": 304.1207, "EPHEMERIS_TYPE": 0, "CLASSIFICATION_TYPE": "U", "NORAD_CAT_ID": 46277, "ELEMENT_SET_NO": 999, "REV_AT_EPOCH": 29333, "BSTAR": 0.00040705007, "MEAN_MOTION_DOT": 0.0001636, "MEAN_MOTION_DDOT": 0}, "tle": {"line1": "1 46277U 20061F   25347.34399277  .00016360  00000+0  40705-3 0  9994", "line2": "2 46277  97.2215  46.4341 0001841  56.0215 304.1207 15.40347042293336"}}, "geometry": {"type": "Point", "coordinates": [75.98385410190556, -75.39315538493716]}}, {"type": "Feature", "properties": {"norad_id": 46984, "name": "SENTINEL-6A", "group": "resource", "lat": -50.54405348453749, "lon": 12.83936053788354, "alt_km": 1338.616324890616, "timestamp": "2025-12-13T18:50:04.086230+00:00", "meta": {"OBJECT_NAME": "SENTINEL-6A", "OBJECT_ID": "2020-086A", "EPOCH": "2025-12-13T04:28:50.695104", "MEAN_MOTION": 12.80930608, "ECCENTRICITY": 0.00077434, "INCLINATION": 66.0389, "RA_OF_ASC_NODE": 161.3797, "ARG_OF_PERICENTER": 269.2599, "MEAN_ANOMALY": 90.7529, "EPHEMERIS_TYPE": 0, "CLASSIFICATION_TYPE": "U", "NORAD_CAT_ID": 46984, "ELEMENT_SET_NO": 999, "REV_AT_EPOCH": 23650, "BSTAR": 0.00012344583, "MEAN_MOTION_DOT": -3.3e-07, "MEAN_MOTION_DDOT": 0}, "tle": {"line1": "1 46984U 20086A   25347.18669786 -.00000033  00000+0  12345-3 0  9993", "line2": "2 46984  66.0389 161.3797 0007743 269.2599  90.7529 12.80930608236507"}}, "geometry": {"type": "Point", "coordinates": [12.83936053788354, -50.54405348453749]}}, {"type": "Feature", "properties": {"norad_id": 48079, "name": "GAOFEN-12 02", "group": "resource", "lat": 19.364338726661117, "lon": 164.6139039552146, "alt_km": 626.2021657596642, "timestamp": "2025-12-13T18:50:04.086240+00:00", "meta": {"OBJECT_NAME": "GAOFEN-12 02", "OBJECT_ID": "2021-026A", "EPOCH": "2025-12-13T06:45:35.949312", "MEAN_MOTION": 14.80676447, "ECCENTRICITY": 0.00035596, "INCLINATION": 97.9852, "RA_OF_ASC_NODE": 341.2854, "ARG_OF_PERICENTER": 100.1528, "MEAN_ANOMALY": 260.0085, "EPHEMERIS_TYPE": 0, "CLASSIFICATION_TYPE": "U", "NORAD_CAT_ID": 48079, "ELEMENT_SET_NO": 999, "REV_AT_EPOCH": 25425, "BSTAR": 0.00011946615, "MEAN_MOTION_DOT": 8.65e-06, "MEAN_MOTION_DDOT": 0}, "tle": {"line1": "1 48079U 21026A   25347.28166608  .00000865  00000+0  11947-3 0  9990", "line2": "2 48079  97.9852 341.2854 0003559 100.1528 260.0085 14.80676447254252"}}, "geometry": {"type": "Point", "coordinates": [164.6139039552146, 19.364338726661117]}}, {"type": "Feature", "properties": {"norad_id": 48268, "name": "PLEIADES NEO 3", "group": "resource", "lat": -50.443354246733094, "lon": -129.45957897619027, "alt_km": 631.6501150379636, "timestamp": "2025-12-13T18:50:04.086251+00:00", "meta": {"OBJECT_NAME": "PLEIADES NEO 3", "OBJECT_ID": "2021-034A", "EPOCH": "2025-12-13T08:04:13.182816", "MEAN_MOTION": 14.81674171, "ECCENTRICITY": 0.00012972, "INCLINATION": 97.8939, "RA_OF_ASC_NODE": 59.7685, "ARG_OF_PERICENTER": 93.7248, "MEAN_ANOMALY": 266.4113, "EPHEMERIS_TYPE": 0, "CLASSIFICATION_TYPE": "U", "NORAD_CAT_ID": 48268, "ELEMENT_SET_NO": 999, "REV_AT_EPOCH": 25013, "BSTAR": 0.00024687715, "MEAN_MOTION_DOT": 1.891e-05, "MEAN_MOTION_DDOT": 0}, "tle": {"line1": "1 48268U 21034A   25347.33626369  .00001891  00000+0  24688-3 0  9996", "line2": "2 48268  97.8939  59.7685 0001297  93.7248 266.4113 14.81674171250131"}}, "geometry": {"type": "Point", "coordinates": [-129.45957897619027, -50.443354246733094]}}, {"type": "Feature", "properties": {"norad_id": 49070, "name": "PLEIADES NEO 4", "group": "resource", "lat": 50.34898228863628, "lon": 50.56877673154971, "alt_km": 618.7412626967116, "timestamp": "2025-12-13T18:50:04.086262+00:00", "meta": {"OBJECT_NAME": "PLEIADES NEO 4", "OBJECT_ID": "2021-073E", "EPOCH": "2025-12-12T08:34:07.569120", "MEAN_MOTION": 14.81676895, "ECCENTRICITY": 0.00012379, "INCLINATION": 97.8941, "RA_OF_ASC_NODE": 58.7994, "ARG_OF_PERICENTER": 92.1719, "MEAN_ANOMALY": 267.9635, "EPHEMERIS_TYPE": 0, "CLASSIFICATION_TYPE": "U", "NORAD_CAT_ID": 49070, "ELEMENT_SET_NO": 999, "REV_AT_EPOCH": 23370, "BSTAR": 3.8133e-06, "MEAN_MOTION_DOT": -2.2e-07, "MEAN_MOTION_DDOT": 0}, "tle": {"line1": "1 49070U 21073E   25346.35703205 -.00000022  00000+0  38133-5 0  9995", "line2": "2 49070  97.8941  58.7994 0001237  92.1719 267.9635 14.81676895233702"}}, "geometry": {"type": "Point", "coordinates": [50.56877673154971, 50.34898228863628]}}, {"type": "Feature", "properties": {"norad_id": 49260, "name": "LANDSAT 9", "group": "resource", "lat": -24.408191756540617, "lon": 59.63695125411694, "alt_km": 708.4063748998587, "timestamp": "2025-12-13T18:50:04.086272+00:00", "meta": {"OBJECT_NAME": "LANDSAT 9", "OBJECT_ID": "2021-088A", "EPOCH": "2025-12-13T04:06:53.025984", "MEAN_MOTION": 14.57098698, "ECCENTRICITY": 0.00011711, "INCLINATION": 98.2095, "RA_OF_ASC_NODE": 55.2763, "ARG_OF_PERICENTER": 89.2058, "MEAN_ANOMALY": 270.9274, "EPHEMERIS_TYPE": 0, "CLASSIFICATION_TYPE": "U", "NORAD_CAT_ID": 49260, "ELEMENT_SET_NO": 999, "REV_AT_EPOCH": 22391, "BSTAR": 0.00016444319, "MEAN_MOTION_DOT": 6.95e-06, "MEAN_MOTION_DDOT": 0}, "tle": {"line1": "1 49260U 21088A   25347.17144706  .00000695  00000+0  16444-3 0  9992", "line2": "2 49260  98.2095  55.2763 0001171  89.2058 270.9274 14.57098698223911"}}, "geometry": {"type": "Point", "coordinates": [59.63695125411694, -24.408191756540617]}}]}